     3.00           N: GNSS NAV DATA    M: Mixed            RINEX VERSION / TYPE
RTKCONV demo5 b34f.1                    20240204 165344 UTC PGM / RUN BY / DATE 
format: u-blox UBX                                          COMMENT             
log: C:\Users\oo\Desktop\divers\verniquet\Reseau\micro\prepaCOMMENT             
                                                            END OF HEADER       
E30 2024 02 04 12 20 00 -.879613857251D-03 -.308517655867D-10  .000000000000D+00
      .740000000000D+02  .102437500000D+03  .307762819557D-08  .915241005290D-01
      .482983887196D-05  .590464216657D-03  .836886465549D-05  .544062267876D+04
      .444000000000D+05  .223517417908D-07  .195279545889D+01  .745058059692D-08
      .964464953905D+00  .162375000000D+03  .936493449671D+00 -.541879714322D-08
     -.334299639208D-09  .513000000000D+03  .230000000000D+04  .000000000000D+00
      .312000000000D+01  .000000000000D+00  .186264514923D-08  .162981450558D-08
      .452650000000D+05  .000000000000D+00
E08 2024 02 04 12 20 00 -.218605448026D-03 -.602540239925D-11  .000000000000D+00
      .740000000000D+02 -.355312500000D+02  .328227957726D-08 -.308744649327D+01
     -.162422657013D-05  .130637316033D-03  .794045627117D-05  .544060050201D+04
      .444000000000D+05 -.353902578354D-07 -.149963697196D+00  .558793544769D-07
      .966719006378D+00  .174812500000D+03 -.622336220402D-01 -.544272671141D-08
      .357872049664D-09  .513000000000D+03  .230000000000D+04  .000000000000D+00
      .312000000000D+01  .000000000000D+00 -.302679836750D-08 -.372529029846D-08
      .452650000000D+05  .000000000000D+00
E36 2024 02 04 11 30 00 -.181237352081D-03 -.531485966349D-11  .000000000000D+00
      .690000000000D+02 -.448125000000D+02  .244653047924D-08  .855278335353D+00
     -.209361314774D-05  .339455320500D-03  .246055424213D-05  .544061252213D+04
      .414000000000D+05 -.223517417908D-07 -.224330207924D+01 -.149011611938D-07
      .100000936622D+01  .304781250000D+03 -.710088410490D+00 -.552594446348D-08
     -.110718897601D-10  .513000000000D+03  .230000000000D+04  .000000000000D+00
      .312000000000D+01  .000000000000D+00  .512227416039D-08  .582076609135D-08
      .452650000000D+05  .000000000000D+00
E11 2024 02 04 11 30 00  .326323171612D-02 -.157882595886D-10 -.346944695195D-17
      .690000000000D+02 -.479375000000D+02  .255046337989D-08  .586820339377D+00
     -.222027301788D-05  .363639672287D-03  .222027301788D-05  .544060858536D+04
      .414000000000D+05 -.745058059692D-08 -.224194573328D+01 -.409781932831D-07
      .996897357645D+00  .309437500000D+03  .309843063373D+00 -.557344644213D-08
     -.928610108910D-11  .513000000000D+03  .230000000000D+04  .000000000000D+00
      .312000000000D+01  .000000000000D+00 -.142026692629D-07 -.153668224812D-07
      .455050000000D+05  .000000000000D+00
E10 2024 02 04 12 30 00 -.599356426392D-03 -.287059265247D-11  .000000000000D+00
      .750000000000D+02 -.432187500000D+02  .261189451018D-08  .157724679196D+01
     -.208243727684D-05  .209818826988D-04  .169500708580D-05  .544060786247D+04
      .450000000000D+05  .931322574615D-07 -.224517678975D+01 -.484287738800D-07
      .999864878191D+00  .323656250000D+03  .192669981501D+00 -.559451874845D-08
     -.507163982558D-10  .513000000000D+03  .230000000000D+04  .000000000000D+00
      .312000000000D+01  .000000000000D+00 -.465661287308D-09  .232830643654D-09
      .456850000000D+05  .000000000000D+00
E18 2024 02 04 12 30 00  .288357841782D-03  .433573177361D-10  .000000000000D+00
      .750000000000D+02 -.203125000000D+01  .629597653841D-08 -.114640203942D+01
     -.120326876640D-05  .160861089476D+00  .571832060814D-05  .528933988190D+04
      .450000000000D+05 -.151433050632D-05  .305164210286D+01 -.296905636787D-05
      .869278072235D+00  .229625000000D+03  .255047381471D+01 -.979540801806D-08
      .923252742897D-09  .513000000000D+03  .230000000000D+04  .000000000000D+00
      .312000000000D+01  .130000000000D+03 -.465661287308D-09 -.116415321827D-08
      .456850000000D+05  .000000000000D+00
E30 2024 02 04 12 30 00 -.879632367287D-03 -.308517655867D-10  .000000000000D+00
      .750000000000D+02  .102468750000D+03  .307869966877D-08  .165890069393D+00
      .482983887196D-05  .590482493863D-03  .838376581669D-05  .544062272263D+04
      .450000000000D+05  .204890966415D-07  .195279219804D+01  .111758708954D-07
      .964464744708D+00  .162187500000D+03  .936512445662D+00 -.541879714322D-08
     -.332513850537D-09  .513000000000D+03  .230000000000D+04  .000000000000D+00
      .312000000000D+01  .000000000000D+00  .186264514923D-08  .162981450558D-08
      .456850000000D+05  .000000000000D+00
E02 2024 02 04 12 30 00  .100641977042D-03  .309796632791D-11  .000000000000D+00
      .750000000000D+02  .859062500000D+02  .291369279557D-08  .124114629182D+01
      .398419797421D-05  .513964565471D-03  .883825123310D-05  .544062770462D+04
      .450000000000D+05 -.186264514923D-08  .195273545730D+01  .372529029846D-08
      .967045520916D+00  .154031250000D+03  .656581245473D+00 -.537058084911D-08
     -.337156901081D-09  .513000000000D+03  .230000000000D+04  .000000000000D+00
      .312000000000D+01  .000000000000D+00 -.116415321827D-08 -.209547579288D-08
      .456850000000D+05  .000000000000D+00
E08 2024 02 04 12 30 00 -.218609115109D-03 -.602540239925D-11  .000000000000D+00
      .750000000000D+02 -.350625000000D+02  .328585115460D-08 -.301278475309D+01
     -.162050127983D-05  .130590749905D-03  .793859362602D-05  .544060061836D+04
      .450000000000D+05 -.316649675369D-07 -.149966969743D+00  .298023223877D-07
      .966719113171D+00  .175000000000D+03 -.625093148039D-01 -.545844165172D-08
      .366443835285D-09  .513000000000D+03  .230000000000D+04  .000000000000D+00
      .312000000000D+01  .000000000000D+00 -.302679836750D-08 -.372529029846D-08
      .456850000000D+05  .000000000000D+00
E27 2024 02 04 13 00 00 -.266315415502D-03 -.950706180447D-11  .000000000000D+00
      .780000000000D+02  .107218750000D+03  .300333938685D-08  .128614564170D-01
      .507012009621D-05  .329556642100D-03  .887177884579D-05  .544061712837D+04
      .468000000000D+05  .223517417908D-07  .194962650769D+01 -.335276126862D-07
      .966607151662D+00  .150218750000D+03  .518613473601D+00 -.539915346784D-08
     -.362157942475D-09  .513000000000D+03  .230000000000D+04  .000000000000D+00
      .312000000000D+01  .000000000000D+00  .232830643654D-08  .232830643654D-08
      .460450000000D+05  .000000000000D+00
E27 2024 02 04 12 30 00 -.266298244242D-03 -.950706180447D-11  .000000000000D+00
      .750000000000D+02  .116218750000D+03  .295476593500D-08 -.212091152345D+00
      .542029738426D-05  .330654205754D-03  .904314219952D-05  .544061961174D+04
      .450000000000D+05  .931322574615D-08  .194963624341D+01 -.316649675369D-07
      .966607859714D+00  .145750000000D+03  .520411889998D+00 -.539379610183D-08
     -.369301097159D-09  .513000000000D+03  .230000000000D+04  .000000000000D+00
      .312000000000D+01  .000000000000D+00  .232830643654D-08  .232830643654D-08
      .460750000000D+05  .000000000000D+00
E11 2024 02 04 12 30 00  .326317525469D-02 -.157598378792D-10 -.346944695195D-17
      .750000000000D+02 -.441875000000D+02  .261832334939D-08  .103797589250D+01
     -.207498669624D-05  .363334547728D-03  .169500708580D-05  .544060502434D+04
      .450000000000D+05  .931322574615D-08 -.224196563775D+01 -.745058059692D-07
      .996897383977D+00  .322937500000D+03  .304997808474D+00 -.557808949267D-08
     -.328585115460D-10  .513000000000D+03  .230000000000D+04  .000000000000D+00
      .312000000000D+01  .000000000000D+00 -.142026692629D-07 -.153668224812D-07
      .461350000000D+05  .000000000000D+00
E11 2024 02 04 12 40 00  .326316582505D-02 -.157740487339D-10 -.346944695195D-17
      .760000000000D+02 -.430625000000D+02  .262760945048D-08  .111287221745D+01
     -.203400850296D-05  .363356084563D-03  .165961682796D-05  .544060465622D+04
      .456000000000D+05  .167638063431D-07 -.224196894979D+01 -.763684511185D-07
      .996897376663D+00  .323937500000D+03  .304486711711D+00 -.558023243908D-08
     -.371444043564D-10  .513000000000D+03  .230000000000D+04  .000000000000D+00
      .312000000000D+01  .000000000000D+00 -.142026692629D-07 -.153668224812D-07
      .462850000000D+05  .000000000000D+00
E30 2024 02 04 12 40 00 -.879650877323D-03 -.308517655867D-10  .000000000000D+00
      .760000000000D+02  .102281250000D+03  .307762819557D-08  .240165274431D+00
      .482052564621D-05  .590550480410D-03  .842474400997D-05  .544062290955D+04
      .456000000000D+05  .186264514923D-07  .195278893281D+01  .149011611938D-07
      .964464536974D+00  .161468750000D+03  .936622256682D+00 -.541843998549D-08
     -.330370904131D-09  .513000000000D+03  .230000000000D+04  .000000000000D+00
      .312000000000D+01  .000000000000D+00  .186264514923D-08  .162981450558D-08
      .462850000000D+05  .000000000000D+00
E02 2024 02 04 12 40 00  .100643839687D-03  .309796632791D-11  .000000000000D+00
      .760000000000D+02  .845937500000D+02  .291119269143D-08  .131520832336D+01
      .391900539398D-05  .513909384608D-03  .881217420101D-05  .544062805176D+04
      .456000000000D+05 -.186264514923D-08  .195273224327D+01  .372529029846D-08
      .967045316108D+00  .154562500000D+03  .656903982756D+00 -.537165232231D-08
     -.337871216549D-09  .513000000000D+03  .230000000000D+04  .000000000000D+00
      .312000000000D+01  .000000000000D+00 -.116415321827D-08 -.209547579288D-08
      .462850000000D+05  .000000000000D+00
